{
  "norad_id": 59960,
  "name": "STARLINK-31856",
  "history": [
    {
      "epoch": "2026-03-28T22:20:58.750656Z",
      "apogee_km": 475.81850871845927,
      "perigee_km": 474.7137401348027,
      "latitude_deg": -1.9224568746522854e-05,
      "longitude_deg": 174.4789877077945,
      "height_km": 476.35972203547266,
      "semi_major_axis_km": 6853.403124426631,
      "eccentricity": 8.06e-05,
      "inclination_deg": 53.1626,
      "raan_deg": 336.0684,
      "arg_perigee_deg": 110.6233,
      "mean_anomaly_deg": 249.4854,
      "mean_motion_rev_day": 15.30182901
    },
    {
      "epoch": "2026-03-29T01:29:05.281152Z",
      "apogee_km": 475.9404431009543,
      "perigee_km": 474.54235390765916,
      "latitude_deg": 3.404607884382601e-05,
      "longitude_deg": 126.7169610718907,
      "height_km": 476.4375787952354,
      "semi_major_axis_km": 6853.3783985043065,
      "eccentricity": 0.000102,
      "inclination_deg": 53.1612,
      "raan_deg": 335.4623,
      "arg_perigee_deg": 115.1895,
      "mean_anomaly_deg": 244.9212,
      "mean_motion_rev_day": 15.30191182
    }
  ]
}